{"type": "FeatureCollection", "features": [ {"type": "Feature", "properties": {"norad_id": 34870, "name": "IRIDIUM 33 DEB", "group": "iridium-33-debris", "lat": -74.55794157836793, "lon": 140.95468446699994, "alt_km": 654.0627084450916, "timestamp": "2025-12-27T05:29:39.589140+00:00", "meta": {"OBJECT_NAME": "IRIDIUM 33 DEB", "OBJECT_ID": "1997-051MQ", "EPOCH": "2025-12-26T04:14:20.156352", "MEAN_MOTION": 14.7668735, "ECCENTRICITY": 0.00182715, "INCLINATION": 86.3108, "RA_OF_ASC_NODE": 307.9292, "ARG_OF_PERICENTER": 135.8969, "MEAN_ANOMALY": 288.3699, "EPHEMERIS_TYPE": 0, "CLASSIFICATION_TYPE": "U", "NORAD_CAT_ID": 34870, "ELEMENT_SET_NO": 999, "REV_AT_EPOCH": 89109, "BSTAR": 0.001456659, "MEAN_MOTION_DOT": 0.00010246, "MEAN_MOTION_DDOT": 0}, "tle": {"line1": "1 34870U 97051MQ  25360.17662218  .00010246  00000+0  14567-2 0  9990", "line2": "2 34870  86.3108 307.9292 0018271 135.8969 288.3699 14.76687350891091"}}, "geometry": {"type": "Point", "coordinates": [140.95468446699994, -74.55794157836793]}}, {"type": "Feature", "properties": {"norad_id": 34896, "name": "IRIDIUM 33 DEB", "group": "iridium-33-debris", "lat": -75.78624398831742, "lon": -54.492394383753876, "alt_km": 689.171690029787, "timestamp": "2025-12-27T05:29:39.589151+00:00", "meta": {"OBJECT_NAME": "IRIDIUM 33 DEB", "OBJECT_ID": "1997-051MY", "EPOCH": "2025-12-24T04:12:44.288640", "MEAN_MOTION": 14.66381715, "ECCENTRICITY": 0.00257287, "INCLINATION": 86.3299, "RA_OF_ASC_NODE": 321.5555, "ARG_OF_PERICENTER": 173.6101, "MEAN_ANOMALY": 201.3064, "EPHEMERIS_TYPE": 0, "CLASSIFICATION_TYPE": "U", "NORAD_CAT_ID": 34896, "ELEMENT_SET_NO": 999, "REV_AT_EPOCH": 87787, "BSTAR": 0.00093038371, "MEAN_MOTION_DOT": 5.188e-05, "MEAN_MOTION_DDOT": 0}, "tle": {"line1": "1 34896U 97051MY  25358.17551260  .00005188  00000+0  93038-3 0  9999", "line2": "2 34896  86.3299 321.5555 0025728 173.6101 201.3064 14.66381715877873"}}, "geometry": {"type": "Point", "coordinates": [-54.492394383753876, -75.78624398831742]}}, {"type": "Feature", "properties": {"norad_id": 34926, "name": "IRIDIUM 33 DEB", "group": "iridium-33-debris", "lat": 54.79484218804227, "lon": 176.04410690877265, "alt_km": 727.9487080686104, "timestamp": "2025-12-27T05:29:39.589161+00:00", "meta": {"OBJECT_NAME": "IRIDIUM 33 DEB", "OBJECT_ID": "1997-051NF", "EPOCH": "2025-12-27T00:05:49.475040", "MEAN_MOTION": 14.55078165, "ECCENTRICITY": 0.00742029, "INCLINATION": 86.1304, "RA_OF_ASC_NODE": 1.6534, "ARG_OF_PERICENTER": 243.2233, "MEAN_ANOMALY": 145.2258, "EPHEMERIS_TYPE": 0, "CLASSIFICATION_TYPE": "U", "NORAD_CAT_ID": 34926, "ELEMENT_SET_NO": 999, "REV_AT_EPOCH": 86664, "BSTAR": 0.0066537297, "MEAN_MOTION_DOT": 0.00029892, "MEAN_MOTION_DDOT": 0}, "tle": {"line1": "1 34926U 97051NF  25361.00404485  .00029892  00000+0  66537-2 0  9996", "line2": "2 34926  86.1304   1.6534 0074202 243.2233 145.2258 14.55078165866640"}}, "geometry": {"type": "Point", "coordinates": [176.04410690877265, 54.79484218804227]}}, {"type": "Feature", "properties": {"norad_id": 34985, "name": "IRIDIUM 33 DEB", "group": "iridium-33-debris", "lat": -50.62070514447743, "lon": 46.25971396593998, "alt_km": 770.3460514239887, "timestamp": "2025-12-27T05:29:39.589172+00:00", "meta": {"OBJECT_NAME": "IRIDIUM 33 DEB", "OBJECT_ID": "1997-051NR", "EPOCH": "2025-12-26T21:58:10.172064", "MEAN_MOTION": 14.42068347, "ECCENTRICITY": 0.00222208, "INCLINATION": 86.3683, "RA_OF_ASC_NODE": 50.8313, "ARG_OF_PERICENTER": 172.8188, "MEAN_ANOMALY": 309.665, "EPHEMERIS_TYPE": 0, "CLASSIFICATION_TYPE": "U", "NORAD_CAT_ID": 34985, "ELEMENT_SET_NO": 999, "REV_AT_EPOCH": 87379, "BSTAR": 0.00068644654, "MEAN_MOTION_DOT": 2.28e-05, "MEAN_MOTION_DDOT": 0}, "tle": {"line1": "1 34985U 97051NR  25360.91539551  .00002280  00000+0  68645-3 0  9998", "line2": "2 34985  86.3683  50.8313 0022220 172.8188 309.6650 14.42068347873790"}}, "geometry": {"type": "Point", "coordinates": [46.25971396593998, -50.62070514447743]}}, {"type": "Feature", "properties": {"norad_id": 35051, "name": "IRIDIUM 33 DEB", "group": "iridium-33-debris", "lat": 6.743005793440008, "lon": -177.88836179340902, "alt_km": 739.6182493739552, "timestamp": "2025-12-27T05:29:39.589183+00:00", "meta": {"OBJECT_NAME": "IRIDIUM 33 DEB", "OBJECT_ID": "1997-051NX", "EPOCH": "2025-12-22T18:31:37.744896", "MEAN_MOTION": 14.47639956, "ECCENTRICITY": 0.0010302, "INCLINATION": 86.324, "RA_OF_ASC_NODE": 4.4893, "ARG_OF_PERICENTER": 63.2582, "MEAN_ANOMALY": 296.9674, "EPHEMERIS_TYPE": 0, "CLASSIFICATION_TYPE": "U", "NORAD_CAT_ID": 35051, "ELEMENT_SET_NO": 999, "REV_AT_EPOCH": 87141, "BSTAR": 0.00060447572, "MEAN_MOTION_DOT": 2.248e-05, "MEAN_MOTION_DDOT": 0}, "tle": {"line1": "1 35051U 97051NX  25356.77196464  .00002248  00000+0  60448-3 0  9991", "line2": "2 35051  86.3240   4.4893 0010302  63.2582 296.9674 14.47639956871417"}}, "geometry": {"type": "Point", "coordinates": [-177.88836179340902, 6.743005793440008]}}, {"type": "Feature", "properties": {"norad_id": 35052, "name": "IRIDIUM 33 DEB", "group": "iridium-33-debris", "lat": -26.83104614374095, "lon": -163.87623277778252, "alt_km": 778.1233988621443, "timestamp": "2025-12-27T05:29:39.589193+00:00", "meta": {"OBJECT_NAME": "IRIDIUM 33 DEB", "OBJECT_ID": "1997-051NY", "EPOCH": "2025-12-26T00:09:21.492000", "MEAN_MOTION": 14.38507246, "ECCENTRICITY": 0.00130035, "INCLINATION": 86.3301, "RA_OF_ASC_NODE": 14.7874, "ARG_OF_PERICENTER": 47.6773, "MEAN_ANOMALY": 312.5525, "EPHEMERIS_TYPE": 0, "CLASSIFICATION_TYPE": "U", "NORAD_CAT_ID": 35052, "ELEMENT_SET_NO": 999, "REV_AT_EPOCH": 87466, "BSTAR": 0.00018800221, "MEAN_MOTION_DOT": 5.94e-06, "MEAN_MOTION_DDOT": 0}, "tle": {"line1": "1 35052U 97051NY  25360.00649875  .00000594  00000+0  18800-3 0  9999", "line2": "2 35052  86.3301  14.7874 0013003  47.6773 312.5525 14.38507246874664"}}, "geometry": {"type": "Point", "coordinates": [-163.87623277778252, -26.83104614374095]}}, {"type": "Feature", "properties": {"norad_id": 35080, "name": "IRIDIUM 33 DEB", "group": "iridium-33-debris", "lat": 20.038293633020633, "lon": 46.829070092235156, "alt_km": 618.358597950597, "timestamp": "2025-12-27T05:29:39.589203+00:00", "meta": {"OBJECT_NAME": "IRIDIUM 33 DEB", "OBJECT_ID": "1997-051PF", "EPOCH": "2025-12-26T21:19:55.703424", "MEAN_MOTION": 14.87648712, "ECCENTRICITY": 0.00579967, "INCLINATION": 86.2085, "RA_OF_ASC_NODE": 45.606, "ARG_OF_PERICENTER": 130.4806, "MEAN_ANOMALY": 230.1496, "EPHEMERIS_TYPE": 0, "CLASSIFICATION_TYPE": "U", "NORAD_CAT_ID": 35080, "ELEMENT_SET_NO": 999, "REV_AT_EPOCH": 69898, "BSTAR": 0.0073607091, "MEAN_MOTION_DOT": 0.00069659, "MEAN_MOTION_DDOT": 0}, "tle": {"line1": "1 35080U 97051PF  25360.88883916  .00069659  00000+0  73607-2 0  9994", "line2": "2 35080  86.2085  45.6060 0057996 130.4806 230.1496 14.87648712698989"}}, "geometry": {"type": "Point", "coordinates": [46.829070092235156, 20.038293633020633]}}, {"type": "Feature", "properties": {"norad_id": 35297, "name": "IRIDIUM 33 DEB", "group": "iridium-33-debris", "lat": 77.46290227758622, "lon": -139.9427812521111, "alt_km": 721.2862123935038, "timestamp": "2025-12-27T05:29:39.589214+00:00", "meta": {"OBJECT_NAME": "IRIDIUM 33 DEB", "OBJECT_ID": "1997-051PM", "EPOCH": "2025-12-26T10:44:46.667040", "MEAN_MOTION": 14.4521519, "ECCENTRICITY": 0.0018076, "INCLINATION": 86.3846, "RA_OF_ASC_NODE": 56.909, "ARG_OF_PERICENTER": 100.7298, "MEAN_ANOMALY": 259.594, "EPHEMERIS_TYPE": 0, "CLASSIFICATION_TYPE": "U", "NORAD_CAT_ID": 35297, "ELEMENT_SET_NO": 999, "REV_AT_EPOCH": 70624, "BSTAR": 0.00060666, "MEAN_MOTION_DOT": 2.149e-05, "MEAN_MOTION_DDOT": 0}, "tle": {"line1": "1 35297U 97051PM  25360.44776235  .00002149  00000+0  60666-3 0  9994", "line2": "2 35297  86.3846  56.9090 0018076 100.7298 259.5940 14.45215190706246"}}, "geometry": {"type": "Point", "coordinates": [-139.9427812521111, 77.46290227758622]}}, {"type": "Feature", "properties": {"norad_id": 35299, "name": "IRIDIUM 33 DEB", "group": "iridium-33-debris", "lat": 7.940923900049216, "lon": -153.64154092930715, "alt_km": 775.3571481377649, "timestamp": "2025-12-27T05:29:39.589224+00:00", "meta": {"OBJECT_NAME": "IRIDIUM 33 DEB", "OBJECT_ID": "1997-051PP", "EPOCH": "2025-12-26T08:45:22.328064", "MEAN_MOTION": 14.40928919, "ECCENTRICITY": 0.0058454, "INCLINATION": 86.2878, "RA_OF_ASC_NODE": 27.2535, "ARG_OF_PERICENTER": 58.9388, "MEAN_ANOMALY": 312.8971, "EPHEMERIS_TYPE": 0, "CLASSIFICATION_TYPE": "U", "NORAD_CAT_ID": 35299, "ELEMENT_SET_NO": 999, "REV_AT_EPOCH": 86527, "BSTAR": 0.00083606, "MEAN_MOTION_DOT": 2.757e-05, "MEAN_MOTION_DDOT": 0}, "tle": {"line1": "1 35299U 97051PP  25360.36484176  .00002757  00000+0  83606-3 0  9991", "line2": "2 35299  86.2878  27.2535 0058454  58.9388 312.8971 14.40928919865276"}}, "geometry": {"type": "Point", "coordinates": [-153.64154092930715, 7.940923900049216]}}, {"type": "Feature", "properties": {"norad_id": 35480, "name": "IRIDIUM 33 DEB", "group": "iridium-33-debris", "lat": 14.478869638181404, "lon": 19.571708711727332, "alt_km": 719.6946771004659, "timestamp": "2025-12-27T05:29:39.589235+00:00", "meta": {"OBJECT_NAME": "IRIDIUM 33 DEB", "OBJECT_ID": "1997-051QA", "EPOCH": "2025-12-26T19:29:20.805504", "MEAN_MOTION": 14.49821486, "ECCENTRICITY": 0.00157721, "INCLINATION": 86.3559, "RA_OF_ASC_NODE": 18.8095, "ARG_OF_PERICENTER": 63.8067, "MEAN_ANOMALY": 296.4757, "EPHEMERIS_TYPE": 0, "CLASSIFICATION_TYPE": "U", "NORAD_CAT_ID": 35480, "ELEMENT_SET_NO": 999, "REV_AT_EPOCH": 87235, "BSTAR": 0.00059301191, "MEAN_MOTION_DOT": 2.31e-05, "MEAN_MOTION_DDOT": 0}, "tle": {"line1": "1 35480U 97051QA  25360.81204636  .00002310  00000+0  59301-3 0  9994", "line2": "2 35480  86.3559  18.8095 0015772  63.8067 296.4757 14.49821486872353"}}, "geometry": {"type": "Point", "coordinates": [19.571708711727332, 14.478869638181404]}}]}